{"fetched_at":"2026-07-23T17:55:06.836Z","source":"https://celestrak.org/NORAD/elements/gp.php?GROUP=kuiper&FORMAT=JSON","constellation":"kuiper","records":[{"OBJECT_NAME":"KUIPER-00605","OBJECT_ID":"2026-118X","EPOCH":"2026-07-23T06:00:02.000160","CLASSIFICATION_TYPE":"U","MEAN_MOTION":14.87441516,"ECCENTRICITY":0.0005056,"INCLINATION":51.8998,"RA_OF_ASC_NODE":243.8275,"ARG_OF_PERICENTER":25.8499,"MEAN_ANOMALY":358.1285,"EPHEMERIS_TYPE":0,"NORAD_CAT_ID":69288,"ELEMENT_SET_NO":999,"REV_AT_EPOCH":480,"BSTAR":-0.0057072445,"MEAN_MOTION_DOT":-0.00052036,"MEAN_MOTION_DDOT":0},{"OBJECT_NAME":"KUIPER-00606","OBJECT_ID":"2026-118Y","EPOCH":"2026-07-23T06:00:02.000160","CLASSIFICATION_TYPE":"U","MEAN_MOTION":15.20217754,"ECCENTRICITY":0.00013843,"INCLINATION":51.882,"RA_OF_ASC_NODE":239.2288,"ARG_OF_PERICENTER":285.2308,"MEAN_ANOMALY":135.4607,"EPHEMERIS_TYPE":0,"NORAD_CAT_ID":69289,"ELEMENT_SET_NO":999,"REV_AT_EPOCH":578,"BSTAR":-0.054727452,"MEAN_MOTION_DOT":-0.01111516,"MEAN_MOTION_DDOT":0},{"OBJECT_NAME":"KUIPER-00607","OBJECT_ID":"2026-118Z","EPOCH":"2026-07-23T04:44:30.530976","CLASSIFICATION_TYPE":"U","MEAN_MOTION":15.38117037,"ECCENTRICITY":0.00052062,"INCLINATION":51.866,"RA_OF_ASC_NODE":239.0113,"ARG_OF_PERICENTER":308.8456,"MEAN_ANOMALY":51.2066,"EPHEMERIS_TYPE":0,"NORAD_CAT_ID":69290,"ELEMENT_SET_NO":999,"REV_AT_EPOCH":952,"BSTAR":0.00075727642,"MEAN_MOTION_DOT":0.00028588,"MEAN_MOTION_DDOT":0},{"OBJECT_NAME":"KUIPER-00608","OBJECT_ID":"2026-118AA","EPOCH":"2026-07-23T02:24:40.479264","CLASSIFICATION_TYPE":"U","MEAN_MOTION":15.33045816,"ECCENTRICITY":0.00088147,"INCLINATION":51.8584,"RA_OF_ASC_NODE":240.5483,"ARG_OF_PERICENTER":333.1356,"MEAN_ANOMALY":26.9172,"EPHEMERIS_TYPE":0,"NORAD_CAT_ID":69291,"ELEMENT_SET_NO":999,"REV_AT_EPOCH":949,"BSTAR":0.00087615998,"MEAN_MOTION_DOT":0.00028151,"MEAN_MOTION_DDOT":0},{"OBJECT_NAME":"KUIPER-00610","OBJECT_ID":"2026-118AB","EPOCH":"2026-07-23T06:00:02.000160","CLASSIFICATION_TYPE":"U","MEAN_MOTION":15.35138536,"ECCENTRICITY":0.00010296,"INCLINATION":51.873,"RA_OF_ASC_NODE":238.5372,"ARG_OF_PERICENTER":18.5774,"MEAN_ANOMALY":26.5876,"EPHEMERIS_TYPE":0,"NORAD_CAT_ID":69292,"ELEMENT_SET_NO":999,"REV_AT_EPOCH":502,"BSTAR":-0.067561937,"MEAN_MOTION_DOT":-0.02107156,"MEAN_MOTION_DDOT":0},{"OBJECT_NAME":"KUIPER-00613","OBJECT_ID":"2026-118AC","EPOCH":"2026-07-23T06:00:02.000160","CLASSIFICATION_TYPE":"U","MEAN_MOTION":14.86102029,"ECCENTRICITY":0.0010671,"INCLINATION":51.8996,"RA_OF_ASC_NODE":243.8125,"ARG_OF_PERICENTER":316.1925,"MEAN_ANOMALY":354.7412,"EPHEMERIS_TYPE":0,"NORAD_CAT_ID":69293,"ELEMENT_SET_NO":999,"REV_AT_EPOCH":547,"BSTAR":-0.0056510676,"MEAN_MOTION_DOT":-0.00049923,"MEAN_MOTION_DDOT":0},{"OBJECT_NAME":"KUIPER-00618","OBJECT_ID":"2026-118AD","EPOCH":"2026-07-22T06:35:43.825920","CLASSIFICATION_TYPE":"U","MEAN_MOTION":15.37671742,"ECCENTRICITY":0.00010746,"INCLINATION":51.8702,"RA_OF_ASC_NODE":243.3426,"ARG_OF_PERICENTER":350.238,"MEAN_ANOMALY":9.8585,"EPHEMERIS_TYPE":0,"NORAD_CAT_ID":69294,"ELEMENT_SET_NO":999,"REV_AT_EPOCH":938,"BSTAR":0.00053487994,"MEAN_MOTION_DOT":0.00019755,"MEAN_MOTION_DDOT":0},{"OBJECT_NAME":"KUIPER-00620","OBJECT_ID":"2026-118AE","EPOCH":"2026-07-23T06:00:02.000160","CLASSIFICATION_TYPE":"U","MEAN_MOTION":15.32685913,"ECCENTRICITY":0.00016902,"INCLINATION":51.8739,"RA_OF_ASC_NODE":238.5644,"ARG_OF_PERICENTER":315.1516,"MEAN_ANOMALY":85.6828,"EPHEMERIS_TYPE":0,"NORAD_CAT_ID":69295,"ELEMENT_SET_NO":999,"REV_AT_EPOCH":268,"BSTAR":-0.022263817,"MEAN_MOTION_DOT":-0.00662552,"MEAN_MOTION_DDOT":0},{"OBJECT_NAME":"KUIPER-00423","OBJECT_ID":"2026-140A","EPOCH":"2026-07-22T18:46:21.671328","CLASSIFICATION_TYPE":"U","MEAN_MOTION":15.38614405,"ECCENTRICITY":0.00133431,"INCLINATION":51.8791,"RA_OF_ASC_NODE":226.3033,"ARG_OF_PERICENTER":299.829,"MEAN_ANOMALY":60.1371,"EPHEMERIS_TYPE":0,"NORAD_CAT_ID":69592,"ELEMENT_SET_NO":999,"REV_AT_EPOCH":671,"BSTAR":0.00069922269,"MEAN_MOTION_DOT":0.0002686,"MEAN_MOTION_DDOT":0},{"OBJECT_NAME":"KUIPER-00428","OBJECT_ID":"2026-140B","EPOCH":"2026-07-23T02:07:33.605760","CLASSIFICATION_TYPE":"U","MEAN_MOTION":15.37084508,"ECCENTRICITY":0.00080904,"INCLINATION":51.8781,"RA_OF_ASC_NODE":225.3465,"ARG_OF_PERICENTER":55.9128,"MEAN_ANOMALY":304.2625,"EPHEMERIS_TYPE":0,"NORAD_CAT_ID":69593,"ELEMENT_SET_NO":999,"REV_AT_EPOCH":675,"BSTAR":0.00075097439,"MEAN_MOTION_DOT":0.00027415,"MEAN_MOTION_DDOT":0},{"OBJECT_NAME":"KUIPER-00481","OBJECT_ID":"2026-140C","EPOCH":"2026-07-22T11:18:22.379040","CLASSIFICATION_TYPE":"U","MEAN_MOTION":15.38079873,"ECCENTRICITY":0.00108876,"INCLINATION":51.8774,"RA_OF_ASC_NODE":227.9588,"ARG_OF_PERICENTER":307.7614,"MEAN_ANOMALY":52.2386,"EPHEMERIS_TYPE":0,"NORAD_CAT_ID":69594,"ELEMENT_SET_NO":999,"REV_AT_EPOCH":666,"BSTAR":0.0005889909,"MEAN_MOTION_DOT":0.00022132,"MEAN_MOTION_DDOT":0},{"OBJECT_NAME":"KUIPER-00490","OBJECT_ID":"2026-140D","EPOCH":"2026-07-23T07:49:17.711616","CLASSIFICATION_TYPE":"U","MEAN_MOTION":15.37979068,"ECCENTRICITY":0.00075851,"INCLINATION":51.8778,"RA_OF_ASC_NODE":223.9336,"ARG_OF_PERICENTER":16.1966,"MEAN_ANOMALY":343.9262,"EPHEMERIS_TYPE":0,"NORAD_CAT_ID":69595,"ELEMENT_SET_NO":999,"REV_AT_EPOCH":679,"BSTAR":0.00079025486,"MEAN_MOTION_DOT":0.00029733,"MEAN_MOTION_DDOT":0},{"OBJECT_NAME":"KUIPER-00493","OBJECT_ID":"2026-140E","EPOCH":"2026-07-23T06:00:02.000160","CLASSIFICATION_TYPE":"U","MEAN_MOTION":15.27688706,"ECCENTRICITY":0.0009064,"INCLINATION":51.8842,"RA_OF_ASC_NODE":224.8714,"ARG_OF_PERICENTER":66.7774,"MEAN_ANOMALY":313.5223,"EPHEMERIS_TYPE":0,"NORAD_CAT_ID":69596,"ELEMENT_SET_NO":999,"REV_AT_EPOCH":284,"BSTAR":-0.041118784,"MEAN_MOTION_DOT":-0.01039177,"MEAN_MOTION_DDOT":0},{"OBJECT_NAME":"KUIPER-00496","OBJECT_ID":"2026-140F","EPOCH":"2026-07-22T11:33:17.514144","CLASSIFICATION_TYPE":"U","MEAN_MOTION":15.34086337,"ECCENTRICITY":0.00103204,"INCLINATION":51.8774,"RA_OF_ASC_NODE":228.7568,"ARG_OF_PERICENTER":76.1505,"MEAN_ANOMALY":284.0628,"EPHEMERIS_TYPE":0,"NORAD_CAT_ID":69597,"ELEMENT_SET_NO":999,"REV_AT_EPOCH":665,"BSTAR":0.00073672562,"MEAN_MOTION_DOT":0.00024407,"MEAN_MOTION_DDOT":0},{"OBJECT_NAME":"KUIPER-00513","OBJECT_ID":"2026-140G","EPOCH":"2026-07-23T01:28:34.454496","CLASSIFICATION_TYPE":"U","MEAN_MOTION":15.38296338,"ECCENTRICITY":0.00071211,"INCLINATION":51.88,"RA_OF_ASC_NODE":225.1695,"ARG_OF_PERICENTER":5.5594,"MEAN_ANOMALY":354.5471,"EPHEMERIS_TYPE":0,"NORAD_CAT_ID":69598,"ELEMENT_SET_NO":999,"REV_AT_EPOCH":675,"BSTAR":0.00091349756,"MEAN_MOTION_DOT":0.00034812,"MEAN_MOTION_DDOT":0},{"OBJECT_NAME":"KUIPER-00516","OBJECT_ID":"2026-140H","EPOCH":"2026-07-23T01:44:40.319232","CLASSIFICATION_TYPE":"U","MEAN_MOTION":15.37728767,"ECCENTRICITY":0.00074857,"INCLINATION":51.8769,"RA_OF_ASC_NODE":225.2355,"ARG_OF_PERICENTER":22.9825,"MEAN_ANOMALY":337.1496,"EPHEMERIS_TYPE":0,"NORAD_CAT_ID":69599,"ELEMENT_SET_NO":999,"REV_AT_EPOCH":675,"BSTAR":0.00098033603,"MEAN_MOTION_DOT":0.00036712,"MEAN_MOTION_DDOT":0}]}
