KUIPER-00605            
1 69288U 26118X   26204.25002315 -.00052036  00000+0 -57072-2 0  9993
2 69288  51.8998 243.8275 0005056  25.8499 358.1285 14.87441516  4804
KUIPER-00606            
1 69289U 26118Y   26204.25002315 -.01111516  00000+0 -54727-1 0  9997
2 69289  51.8820 239.2288 0001384 285.2308 135.4607 15.20217754  5788
KUIPER-00607            
1 69290U 26118Z   26204.19757559  .00028588  00000+0  75728-3 0  9998
2 69290  51.8660 239.0113 0005206 308.8456  51.2066 15.38117037  9522
KUIPER-00608            
1 69291U 26118AA  26204.10046851  .00028151  00000+0  87616-3 0  9991
2 69291  51.8584 240.5483 0008814 333.1356  26.9172 15.33045816  9496
KUIPER-00610            
1 69292U 26118AB  26204.25002315 -.02107156  00000+0 -67562-1 0  9998
2 69292  51.8730 238.5372 0001029  18.5774  26.5876 15.35138536  5029
KUIPER-00613            
1 69293U 26118AC  26204.25002315 -.00049923  00000+0 -56511-2 0  9997
2 69293  51.8996 243.8125 0010671 316.1925 354.7412 14.86102029  5471
KUIPER-00618            
1 69294U 26118AD  26203.27481280  .00019755  00000+0  53488-3 0  9990
2 69294  51.8702 243.3426 0001074 350.2380   9.8585 15.37671742  9380
KUIPER-00620            
1 69295U 26118AE  26204.25002315 -.00662552  00000+0 -22264-1 0  9995
2 69295  51.8739 238.5644 0001690 315.1516  85.6828 15.32685913  2682
KUIPER-00423            
1 69592U 26140A   26203.78219527  .00026860  00000+0  69922-3 0  9990
2 69592  51.8791 226.3033 0013343 299.8290  60.1371 15.38614405  6715
KUIPER-00428            
1 69593U 26140B   26204.08858340  .00027415  00000+0  75097-3 0  9994
2 69593  51.8781 225.3465 0008090  55.9128 304.2625 15.37084508  6759
KUIPER-00481            
1 69594U 26140C   26203.47109235  .00022132  00000+0  58899-3 0  9991
2 69594  51.8774 227.9588 0010887 307.7614  52.2386 15.38079873  6665
KUIPER-00490            
1 69595U 26140D   26204.32589944  .00029733  00000+0  79025-3 0  9994
2 69595  51.8778 223.9336 0007585  16.1966 343.9262 15.37979068  6790
KUIPER-00493            
1 69596U 26140E   26204.25002315 -.01039177  00000+0 -41119-1 0  9996
2 69596  51.8842 224.8714 0009064  66.7774 313.5223 15.27688706  2842
KUIPER-00496            
1 69597U 26140F   26203.48145271  .00024407  00000+0  73673-3 0  9999
2 69597  51.8774 228.7568 0010320  76.1505 284.0628 15.34086337  6655
KUIPER-00513            
1 69598U 26140G   26204.06150989  .00034812  00000+0  91350-3 0  9990
2 69598  51.8800 225.1695 0007121   5.5594 354.5471 15.38296338  6755
KUIPER-00516            
1 69599U 26140H   26204.07268888  .00036712  00000+0  98034-3 0  9997
2 69599  51.8769 225.2355 0007485  22.9825 337.1496 15.37728767  6756
